{
"type": "FeatureCollection",
"name": "FCAT_Reserve_boundary",
"crs": { "type": "name", "properties": { "name": "urn:ogc:def:crs:OGC:1.3:CRS84" } },
"features": [
{ "type": "Feature", "properties": { "fid": 1, "Name": "FCAT Reserve", "description": null, "timestamp": null, "begin": null, "end": null, "altitudeMode": null, "tessellate": -1, "extrude": 0, "visibility": -1, "drawOrder": null, "icon": null, "area": null, "layer": "FCAT - Reserve Boundary", "path": "/Volumes/GoogleDrive/Shared drives/FCAT - Data/GIS/Shapefiles/FCAT_GIS - Boundaries, Roads, Rivers - 2023_01_19.gpkg|layername=FCAT - Reserve Boundary", "cmt": null, "desc": null, "src": null, "link1_href": null, "link1_text": null, "link1_type": null, "link2_href": null, "link2_text": null, "link2_type": null, "number": null, "type": null, "gpxx_TrackExtension": null, "gpxtrkx_TrackStatsExtension": null }, "geometry": { "type": "MultiPolygon", "coordinates": [ [ [ [ -79.673358416, 0.381637942000054, 212.991449937475011 ], [ -79.673250373, 0.381588321000038, 212.991449937475011 ], [ -79.673238555, 0.381575413000064, 212.991449937475011 ], [ -79.673207039, 0.381578682000054, 212.991449937475011 ], [ -79.673122969000019, 0.381561164000061, 212.991449937475011 ], [ -79.673135625, 0.381585388000076, 212.991449937475011 ], [ -79.672991958999901, 0.381515566000076, 212.991449937475011 ], [ -79.672928508, 0.381598631000031, 212.991449937475011 ], [ -79.672926078, 0.38160558800007, 212.991449937475011 ], [ -79.672912666999906, 0.381584885000052, 212.991449937475011 ], [ -79.672914511, 0.381546915000058, 212.991449937475011 ], [ -79.672896657, 0.381556051000075, 212.991449937475011 ], [ -79.672781657, 0.38168261800007, 212.991449937475011 ], [ -79.672749639000017, 0.381662585000072, 212.991449937475011 ], [ -79.672733126, 0.38166241700003, 212.991449937475011 ], [ -79.672667496, 0.381686557000023, 212.991449937475011 ], [ -79.672608823000019, 0.381683875000021, 212.991449937475011 ], [ -79.672585856, 0.381695526000044, 212.991449937475011 ], [ -79.672471862, 0.38163878000006, 212.991449937475011 ], [ -79.672430204, 0.381614137000042, 212.991449937475011 ], [ -79.672428695999898, 0.381606342000055, 212.991449937475011 ], [ -79.672441855, 0.381604750000065, 212.991449937475011 ], [ -79.672330041, 0.381574491000038, 212.991449937475011 ], [ -79.672302045, 0.381600056000025, 212.991449937475011 ], [ -79.672368346, 0.381647078000071, 212.991449937475011 ], [ -79.672307492999906, 0.381700220000028, 212.991449937475011 ], [ -79.672306906000017, 0.381685300000072, 212.991449937475011 ], [ -79.672234906, 0.381722767000042, 212.991449937475011 ], [ -79.67222183, 0.381667782000022, 212.991449937475011 ], [ -79.672209005999903, 0.381647749000024, 212.991449937475011 ], [ -79.672178915, 0.381636349000075, 212.991449937475011 ], [ -79.672115882999904, 0.381642803000034, 212.991449937475011 ], [ -79.672092077999906, 0.381626375000053, 212.991449937475011 ], [ -79.672112027, 0.38161447300007, 212.991449937475011 ], [ -79.672068358, 0.381598212000028, 212.991449937475011 ], [ -79.672066430000015, 0.381588908000026, 212.991449937475011 ], [ -79.672042038, 0.381574072000035, 212.991449937475011 ], [ -79.672019994, 0.381581029000074, 212.991449937475011 ], [ -79.671991328, 0.381593434000024, 212.991449937475011 ], [ -79.671965428, 0.381599050000034, 212.991449937475011 ], [ -79.671935504, 0.381608605000054, 212.991449937475011 ], [ -79.671916393999894, 0.381585388000076, 212.991449937475011 ], [ -79.671889236, 0.381575078000026, 212.991449937475011 ], [ -79.67189108, 0.381579185000021, 212.991449937475011 ], [ -79.671833831999905, 0.381566361000068, 212.991449937475011 ], [ -79.671767866, 0.381591255000046, 212.991449937475011 ], [ -79.671726878999905, 0.381593518000045, 212.991449937475011 ], [ -79.671670468999906, 0.381548759000054, 212.991449937475011 ], [ -79.671669379, 0.381570887000066, 212.991449937475011 ], [ -79.671642976, 0.38157792800007, 212.991449937475011 ], [ -79.671637024999896, 0.381566528000064, 212.991449937475011 ], [ -79.67154013, 0.381526630000053, 212.991449937475011 ], [ -79.671502076, 0.381522691000043, 212.991449937475011 ], [ -79.67145673, 0.381544819000055, 212.991449937475011 ], [ -79.671455137, 0.381517829000074, 212.991449937475011 ], [ -79.671425885, 0.381524367000054, 212.991449937475011 ], [ -79.671378024, 0.381515231000037, 212.991449937475011 ], [ -79.671336953, 0.381493522000028, 212.991449937475011 ], [ -79.671286577, 0.381478937000054, 212.991449937475011 ], [ -79.671214409, 0.381439459000035, 212.991449937475011 ], [ -79.671126315, 0.381463095000072, 212.991449937475011 ], [ -79.671061188, 0.381391263000069, 212.991449937475011 ], [ -79.671029085, 0.38142018000002, 212.991449937475011 ], [ -79.670985835, 0.381428143000051, 212.991449937475011 ], [ -79.670911654999898, 0.381403249000073, 212.991449937475011 ], [ -79.67084175, 0.381342228000051, 212.991449937475011 ], [ -79.670821885, 0.381323872000053, 212.991449937475011 ], [ -79.670798917999903, 0.381317921000061, 212.991449937475011 ], [ -79.670621809, 0.381342815000039, 212.991449937475011 ], [ -79.670586269, 0.381358154000054, 212.991449937475011 ], [ -79.670501109, 0.381350191000024, 212.991449937475011 ], [ -79.670465234999895, 0.381313646000024, 212.991449937475011 ], [ -79.670399688, 0.38131029300007, 212.991449937475011 ], [ -79.670342607, 0.381285734000073, 212.991449937475011 ], [ -79.670289801, 0.381283052000072, 212.991449937475011 ], [ -79.670257530999905, 0.381298810000032, 212.991449937475011 ], [ -79.670212353, 0.381300570000065, 212.991449937475011 ], [ -79.670173964, 0.381288249000022, 212.991449937475011 ], [ -79.670116799, 0.381292105000057, 212.991449937475011 ], [ -79.670078494, 0.381301576000055, 212.991449937475011 ], [ -79.670069693, 0.381307779000053, 212.991449937475011 ], [ -79.670053682999907, 0.381316245000051, 212.991449937475011 ], [ -79.669980258, 0.381315993000044, 212.991449937475011 ], [ -79.669903144, 0.381323034000047, 212.991449937475011 ], [ -79.669776661, 0.381322699000066, 212.991449937475011 ], [ -79.669728382, 0.381338792000065, 212.991449937475011 ], [ -79.669703152, 0.381329488000063, 212.991449937475011 ], [ -79.669698374, 0.381330159000072, 212.991449937475011 ], [ -79.669677335999907, 0.381328650000057, 212.991449937475011 ], [ -79.669628888, 0.38132906900006, 212.991449937475011 ], [ -79.669559654, 0.38133066100005, 212.991449937475011 ], [ -79.669422275, 0.381334433000063, 212.991449937475011 ], [ -79.669328649, 0.381323369000029, 212.991449937475011 ], [ -79.66929134899992, 0.381316831000049, 212.991449937475011 ], [ -79.669246337999908, 0.381310210000038, 212.991449937475011 ], [ -79.669214822, 0.381299313000056, 212.991449937475011 ], [ -79.669171655999904, 0.381316328000025, 212.991449937475011 ], [ -79.669089094, 0.38133820500002, 212.991449937475011 ], [ -79.668951379, 0.381381791000024, 212.991449937475011 ], [ -79.668881139, 0.381409200000064, 212.991449937475011 ], [ -79.668754656, 0.381454378000058, 212.991449937475011 ], [ -79.668691372999902, 0.38147516500004, 212.991449937475011 ], [ -79.668611577, 0.381408194000073, 212.991449937475011 ], [ -79.668591125, 0.381375169000023, 212.991449937475011 ], [ -79.668600597, 0.381293697000046, 212.991449937475011 ], [ -79.668589868, 0.381264780000038, 212.991449937475011 ], [ -79.668589112999911, 0.381245837000051, 212.991449937475011 ], [ -79.668571594999904, 0.381240388000037, 212.991449937475011 ], [ -79.668566901, 0.381239299000072, 212.991449937475011 ], [ -79.668504874999897, 0.381212812000058, 212.991449937475011 ], [ -79.668489704, 0.381192779000059, 212.991449937475011 ], [ -79.668438323, 0.381131927000069, 212.991449937475011 ], [ -79.668382332, 0.38107627100004, 212.991449937475011 ], [ -79.668298764, 0.38099664300006, 212.991449937475011 ], [ -79.668252747, 0.380930174000071, 212.991449937475011 ], [ -79.6681866979999, 0.380824981000046, 212.991449937475011 ], [ -79.668183848, 0.38082154500006, 212.991449937475011 ], [ -79.66814965, 0.380751220000036, 212.991449937475011 ], [ -79.668075805999905, 0.380661953000072, 212.991449937475011 ], [ -79.668074716, 0.380645273000027, 212.991449937475011 ], [ -79.668015372, 0.380572602000029, 212.991449937475011 ], [ -79.668013528, 0.380559443000038, 212.991449937475011 ], [ -79.667962734, 0.380504876000032, 212.991449937475011 ], [ -79.667947142999907, 0.380480569000042, 212.991449937475011 ], [ -79.667941025, 0.38047034300007, 212.991449937475011 ], [ -79.667942282, 0.380466571000056, 212.991449937475011 ], [ -79.667941695, 0.380466403000071, 212.991449937475011 ], [ -79.667912274999907, 0.380424410000046, 212.991449937475011 ], [ -79.667906742999904, 0.380418291000069, 212.991449937475011 ], [ -79.667905065999918, 0.380400689000055, 212.991449937475011 ], [ -79.667907916, 0.380391050000071, 212.991449937475011 ], [ -79.667900959, 0.380384847000073, 212.991449937475011 ], [ -79.667897605999897, 0.380365234000067, 212.991449937475011 ], [ -79.667854791090306, 0.380405233799439, 212.991449937475011 ], [ -79.6678540993788, 0.380405515847687, 132.768246798543998 ], [ -79.667822834117899, 0.380351670090468, 237.274008080113987 ], [ -79.667739439800002, 0.3803941514, 472.14 ], [ -79.667675988699997, 0.3804248292, 471.83 ], [ -79.667668361200001, 0.3804445267, 471.34 ], [ -79.6675130446, 0.3804354742, 468.01 ], [ -79.667387651300004, 0.3804032877, 465.11 ], [ -79.667151533099997, 0.3803082369, 463.08 ], [ -79.667123118400013, 0.3803468775, 462.74 ], [ -79.667083639699996, 0.3803519066, 463.14 ], [ -79.667158903316604, 0.380403509245698, 462.787248692183027 ], [ -79.667122447899999, 0.3804039583, 462.7 ], [ -79.667115490900002, 0.3804615419, 462.52 ], [ -79.667118005500001, 0.380480988, 462.74 ], [ -79.667135775099993, 0.380611578, 462.12 ], [ -79.667126135900006, 0.3806872666, 462.02 ], [ -79.667130410699997, 0.3807223868, 461.12 ], [ -79.6671007387, 0.3807116579, 459.37 ], [ -79.6670808736, 0.3807061259, 458.21 ], [ -79.6670866571, 0.3808980715, 455.42 ], [ -79.667124878600006, 0.3810018394, 458.53 ], [ -79.667181624099996, 0.3811071161, 460.06 ], [ -79.6671926044, 0.3811333515, 460.4 ], [ -79.667201321600004, 0.3811500315, 461.06 ], [ -79.667337192199994, 0.3813084494, 464.19 ], [ -79.667418999600002, 0.3814535402, 465.13 ], [ -79.667483456400007, 0.3815363534, 466.11 ], [ -79.667484050405307, 0.381536835396352, 469.464383320718014 ], [ -79.667480019899998, 0.3815520275, 472.54 ], [ -79.667454790299999, 0.3815501835, 473.95 ], [ -79.6674055047, 0.3815563861, 473.28 ], [ -79.66738455, 0.3815618344, 473.03 ], [ -79.667311543599993, 0.3815827891, 472.79 ], [ -79.667282374600006, 0.3815854713, 472.59 ], [ -79.6672371123, 0.3816312365, 472.1 ], [ -79.667170476199999, 0.3816603217, 471.41 ], [ -79.667166452900005, 0.3816639259, 470.92 ], [ -79.667033264400018, 0.3817034047, 468.67 ], [ -79.667032761499996, 0.381719498, 468.19 ], [ -79.666932849199995, 0.3817645926, 466.02 ], [ -79.6668106411, 0.3818359226, 464.63 ], [ -79.666731013, 0.381891327, 464.71 ], [ -79.666698491199995, 0.3819045704, 464.81 ], [ -79.666680553899994, 0.3819127008, 464.62 ], [ -79.666621964399994, 0.3819384333, 461.43 ], [ -79.666489698, 0.3819796722, 458.09 ], [ -79.666422726600004, 0.3820599709, 454.99 ], [ -79.666414428500005, 0.3820432071, 451.75 ], [ -79.666401268900003, 0.3820586298, 448.71 ], [ -79.666336728299996, 0.3821272776, 445.59 ], [ -79.666330860900004, 0.3821309656, 445.56 ], [ -79.666298003899996, 0.3821712825, 442.25 ], [ -79.666272522900002, 0.3821872082, 441.9 ], [ -79.666260369100002, 0.3822592087, 438.6 ], [ -79.666252238699997, 0.382319726, 437.15 ], [ -79.666170012199998, 0.3822205681, 434.04 ], [ -79.666147213399995, 0.3822249267, 433.74 ], [ -79.666066747200006, 0.38227899, 430.47 ], [ -79.666069261700002, 0.3822839353, 430.2 ], [ -79.666036907600002, 0.3823170438, 426.38 ], [ -79.666034889730795, 0.38231604348684, 425.627995088541979 ], [ -79.665976893200011, 0.3824027069, 425.12 ], [ -79.665908161600001, 0.3824381623, 428.22 ], [ -79.665820151600002, 0.3824503161, 431.36 ], [ -79.665717892300009, 0.3824803233, 433.12 ], [ -79.665714120499999, 0.3824862745, 433.63 ], [ -79.665707163500002, 0.3825197183, 436.68 ], [ -79.665631894, 0.3825140186, 440.02 ], [ -79.665618231500019, 0.3825280163, 442.86 ], [ -79.665584703899995, 0.3825288545, 445.03 ], [ -79.6654836182, 0.3824977577, 446.97 ], [ -79.665474817200007, 0.382532794, 450.31 ], [ -79.665431315099994, 0.3826125897, 451.71 ], [ -79.665404995900005, 0.3826462012, 450.4 ], [ -79.665320841600007, 0.382662043, 448.39 ], [ -79.665292175499999, 0.3826859314, 447.05 ], [ -79.665273735300005, 0.382695403, 446.56 ], [ -79.665269292900007, 0.3827121668, 446.02 ], [ -79.665195867400016, 0.3827615362, 445.9 ], [ -79.665127806399994, 0.3828733508, 447.69 ], [ -79.665140295399993, 0.3828351293, 447.91 ], [ -79.665012303699996, 0.3828768712, 447.63 ], [ -79.664999311800003, 0.3828740213, 445.92 ], [ -79.664995037, 0.382888522, 445.59 ], [ -79.664931586, 0.3829137515, 444.6 ], [ -79.664892777800006, 0.3829354607, 443.93 ], [ -79.664858160500003, 0.3829916194, 442.42 ], [ -79.664785321799997, 0.3830281645, 440.73 ], [ -79.664730755600004, 0.3830642067, 440.22 ], [ -79.664661102, 0.3831393924, 437.31 ], [ -79.664612906100004, 0.3831946291, 436.46 ], [ -79.664511485, 0.3832723293, 434.85 ], [ -79.664396401499999, 0.3833344392, 433.34 ], [ -79.664384080100007, 0.3833833896, 432.39 ], [ -79.664300428700002, 0.383347515, 429.17 ], [ -79.664221052100004, 0.3833019175, 426.34 ], [ -79.6641732752, 0.3833252192, 422.98 ], [ -79.663955848699999, 0.3833944537, 419.51 ], [ -79.663945371300017, 0.3833978903, 418.58 ], [ -79.663776475899994, 0.3833734151, 415.63 ], [ -79.663755102099998, 0.3835044242, 412.48 ], [ -79.663715036599996, 0.3836609144, 410.51 ], [ -79.663695003800001, 0.3837095294, 409.4 ], [ -79.663471877600003, 0.3838837054, 406.17 ], [ -79.663435500099993, 0.383904241, 406.13 ], [ -79.663451677200001, 0.3839450609, 406.7 ], [ -79.663232071300015, 0.3840826917, 406.32 ], [ -79.6631654352, 0.3840934206, 402.96 ], [ -79.663172559800003, 0.3841461428, 402.4 ], [ -79.663177086, 0.3841753118, 402.24 ], [ -79.663145821499995, 0.3842197359, 402.57 ], [ -79.663078263399996, 0.3842510004, 400.49 ], [ -79.663009783299998, 0.3842603043, 401.71 ], [ -79.662885647300001, 0.3843722865, 398.61 ], [ -79.6627383772, 0.3846473806, 398.38 ], [ -79.662373345299997, 0.3847964108, 395.45 ], [ -79.662249377, 0.3849378973, 393.98 ], [ -79.662115182700006, 0.3850162681, 394.04 ], [ -79.662078553800001, 0.3850411624, 393.06 ], [ -79.661999680099996, 0.3850606922, 391.0 ], [ -79.661946203599996, 0.3851243109, 389.81 ], [ -79.661882836399997, 0.3851797991, 387.66 ], [ -79.661790719300001, 0.3852559905, 385.04 ], [ -79.6617606282, 0.3852730896, 383.9 ], [ -79.661714527800001, 0.3853368759, 382.72 ], [ -79.661662811400006, 0.3853310924, 381.52 ], [ -79.661584356800006, 0.3853659611, 379.96 ], [ -79.6615477279, 0.3854108881, 380.26 ], [ -79.66150322, 0.3854066972, 379.74 ], [ -79.661465333799995, 0.3854087926, 379.41 ], [ -79.661377910499994, 0.3854188509, 377.97 ], [ -79.661315465300007, 0.3854558151, 376.75 ], [ -79.661261167958003, 0.38544521392167, 377.441140992176997 ], [ -79.661261569700002, 0.3854290769, 377.96 ], [ -79.661240950199996, 0.3854420688, 378.03 ], [ -79.661149503700003, 0.3855113033, 376.22 ], [ -79.6611254476, 0.3855280671, 374.83 ], [ -79.661111449800003, 0.3855396342, 371.77 ], [ -79.661076497300002, 0.3855147399, 369.38 ], [ -79.661056716, 0.3855178412, 367.94 ], [ -79.661064092100005, 0.3855112195, 366.63 ], [ -79.661016650500002, 0.385534605, 364.98 ], [ -79.660990163700006, 0.3855051007, 363.15 ], [ -79.660988487300003, 0.3855223674, 361.93 ], [ -79.660940542800006, 0.385549441, 359.59 ], [ -79.660946367933505, 0.385579701260342, 355.399905114296018 ], [ -79.660978345199993, 0.3855589125, 352.84 ], [ -79.660967700200004, 0.3855728265, 352.03 ], [ -79.6609409371423, 0.385613856392053, 348.662629777513985 ], [ -79.660915816200003, 0.3856183402, 344.89 ], [ -79.660848425699996, 0.3856941964, 341.76 ], [ -79.660768043200008, 0.3857221082, 341.89 ], [ -79.660706771500003, 0.385768963, 341.2 ], [ -79.660686655, 0.3857785184, 340.81 ], [ -79.660650696600001, 0.385789834, 340.18 ], [ -79.660460343599993, 0.3858777601, 336.84 ], [ -79.660506527899997, 0.3858761676, 335.34 ], [ -79.660497475400021, 0.3859289736, 333.88 ], [ -79.660480376300015, 0.3859150596, 330.59 ], [ -79.660477526500003, 0.3859248664, 327.52 ], [ -79.660426732199994, 0.3859803546, 324.91 ], [ -79.660404603900005, 0.3860040754, 321.77 ], [ -79.660341320599997, 0.3860492539, 321.46 ], [ -79.6603497025, 0.3860701248, 319.47 ], [ -79.660372836500002, 0.3860909957, 316.53 ], [ -79.6602968965, 0.3861118667, 316.95 ], [ -79.660292118800001, 0.3861385211, 313.96 ], [ -79.660307096945303, 0.386148539918684, 310.939425849227973 ], [ -79.660259094099999, 0.3861287981, 309.34 ], [ -79.660259932299994, 0.3861339949, 309.07 ], [ -79.660220956399996, 0.3861837834, 308.53 ], [ -79.660196900399995, 0.3862332366, 306.88 ], [ -79.660163037499998, 0.3862612322, 305.37 ], [ -79.660110399100006, 0.3863075003, 302.66 ], [ -79.660119283900002, 0.3863296285, 299.68 ], [ -79.659867994500004, 0.386228459, 296.77 ], [ -79.659740841, 0.3863066621, 297.17 ], [ -79.659687783600006, 0.3863466438, 297.38 ], [ -79.659603126300013, 0.3864163812, 298.74 ], [ -79.659415958400018, 0.386305321, 299.22 ], [ -79.659387124700004, 0.3862945084, 299.18 ], [ -79.659372037300002, 0.3862832766, 299.22 ], [ -79.659291319499999, 0.3862257767, 299.01 ], [ -79.659264832700003, 0.3862035647, 298.28 ], [ -79.658972891, 0.3858334199, 298.24 ], [ -79.658950427500002, 0.3858137224, 298.23 ], [ -79.658752614600004, 0.3857101221, 298.09 ], [ -79.658741802, 0.3857101221, 297.95 ], [ -79.658712884400003, 0.3856761754, 297.52 ], [ -79.658652953800001, 0.3857147321, 297.38 ], [ -79.658502079499996, 0.3857621737, 297.64 ], [ -79.658454302699994, 0.3857736569, 297.69 ], [ -79.65838884, 0.3858156502, 297.61 ], [ -79.658290017400006, 0.3858666122, 297.61 ], [ -79.658208629100002, 0.3859137185, 297.38 ], [ -79.658132521400006, 0.3859187476, 297.34 ], [ -79.658094802899996, 0.3859108686, 297.3 ], [ -79.658011151500006, 0.3858668637, 298.08 ], [ -79.657923476799994, 0.385861164, 298.06 ], [ -79.657914927199997, 0.385859739, 297.99 ], [ -79.657785259199997, 0.3857739083, 297.41 ], [ -79.657777883099996, 0.3857665323, 297.34 ], [ -79.657717784900001, 0.3856368642, 296.76 ], [ -79.657724825700001, 0.3856027499, 296.75 ], [ -79.657724825700001, 0.3855611756, 296.97 ], [ -79.657710157300002, 0.3855168354, 296.74 ], [ -79.657706050200005, 0.3854619339, 296.74 ], [ -79.65763145130002, 0.3852556553, 297.43 ], [ -79.65758602130002, 0.385139063, 297.61 ], [ -79.657589457900002, 0.3850458562, 297.68 ], [ -79.657684341099994, 0.3849368077, 297.89 ], [ -79.657729016600001, 0.3849210497, 298.7 ], [ -79.657759359099998, 0.3848114144, 298.59 ], [ -79.657754749099993, 0.38471343, 297.83 ], [ -79.657765394099997, 0.3846469615, 297.97 ], [ -79.657730944500003, 0.3845908865, 296.88 ], [ -79.657730525399998, 0.384486448, 296.75 ], [ -79.657631702700002, 0.3842346556, 296.86 ], [ -79.657488372200007, 0.3842867911, 295.64 ], [ -79.657461885399997, 0.3842878807, 295.8 ], [ -79.657446810767098, 0.384264238744803, 296.641999074932016 ], [ -79.657448474299997, 0.3842237592, 300.13 ], [ -79.657450318299993, 0.3841867112, 303.41 ], [ -79.657464735199994, 0.3841778263, 305.28 ], [ -79.657476972799998, 0.3841646668, 305.9 ], [ -79.657496167299996, 0.3841328993, 309.39 ], [ -79.657496167299996, 0.3841240145, 310.14 ], [ -79.657493317499998, 0.3841064125, 313.79 ], [ -79.657504238822796, 0.384145576702618, 316.439038802446987 ], [ -79.657505052199994, 0.3841443826, 317.98 ], [ -79.657585099299993, 0.3841403592, 321.84 ], [ -79.657613933099995, 0.3841123637, 323.71 ], [ -79.657618375499993, 0.3840958513, 324.34 ], [ -79.657634636400005, 0.3841018025, 325.69 ], [ -79.657690292200002, 0.3840879723, 329.15 ], [ -79.657695405200016, 0.3840684425, 329.78 ], [ -79.657725412399998, 0.3840548638, 331.17 ], [ -79.657731698800006, 0.3840513434, 331.48 ], [ -79.657757263600004, 0.3840364236, 334.93 ], [ -79.657767154300004, 0.3839648422, 337.5 ], [ -79.657806968299994, 0.383948246, 340.54 ], [ -79.657866731300004, 0.3839928377, 343.77 ], [ -79.657896151800003, 0.3840005491, 345.5 ], [ -79.657916352200004, 0.3840097692, 346.79 ], [ -79.657970247799994, 0.3839444742, 349.88 ], [ -79.658019868699995, 0.383906588, 353.59 ], [ -79.658032525300001, 0.3839049116, 354.27 ], [ -79.658067729300001, 0.3839070071, 357.36 ], [ -79.658069405700004, 0.3839035705, 358.11 ], [ -79.658100921699997, 0.3839104436, 361.72 ], [ -79.658140735700002, 0.3838779218, 364.76 ], [ -79.658215753700006, 0.3838323243, 367.1 ], [ -79.658266296600004, 0.3837917559, 368.34 ], [ -79.658310553100009, 0.3837161511, 371.48 ], [ -79.658316504200002, 0.3836976271, 374.85 ], [ -79.658356821200002, 0.3837053385, 378.38 ], [ -79.65836294, 0.383701399, 378.53 ], [ -79.658409878599997, 0.3836351819, 381.8 ], [ -79.658421529500004, 0.3835848905, 384.91 ], [ -79.658498978200001, 0.3834979702, 388.93 ], [ -79.658522531399996, 0.3834224492, 391.61 ], [ -79.658556059, 0.3833868261, 394.86 ], [ -79.658622192200014, 0.3833323438, 397.97 ], [ -79.65865748, 0.3832644504, 401.26 ], [ -79.6587073524, 0.3832176793, 404.64 ], [ -79.6587803587, 0.3831848223, 407.93 ], [ -79.658825621, 0.3831334412, 410.29 ], [ -79.6588213462, 0.3831194434, 410.57 ], [ -79.658850599100006, 0.383055741, 414.05 ], [ -79.658886138300005, 0.3830371331, 417.13 ], [ -79.658899297900007, 0.3830338642, 418.55 ], [ -79.658926539099994, 0.3829994146, 421.08 ], [ -79.659017315100002, 0.3829601035, 424.16 ], [ -79.659033156899994, 0.3829442617, 424.5 ], [ -79.659086884900006, 0.382898245, 427.43 ], [ -79.659139104199994, 0.3827749472, 430.59 ], [ -79.659150503600003, 0.3827644698, 430.9 ], [ -79.6591949277, 0.3827161063, 433.66 ], [ -79.659240944299995, 0.3826751187, 436.5 ], [ -79.659295510500002, 0.3826494701, 439.72 ], [ -79.659303221900004, 0.3826340474, 440.65 ], [ -79.659354908314995, 0.382581205984633, 221.823546385148006 ], [ -79.657171072526097, 0.383556448790903, 0.0 ], [ -79.656666624624194, 0.38339751315057, 0.0 ], [ -79.656521509474302, 0.38306582137944, 0.0 ], [ -79.656293471381602, 0.38295525745573, 0.0 ], [ -79.656245099665, 0.38273412960831, 0.0 ], [ -79.655434873411593, 0.381631945493826, 0.0 ], [ -79.655220655809401, 0.381203510289449, 0.0 ], [ -79.655324309487895, 0.380961651706334, 0.0 ], [ -79.655123912376098, 0.380623049689972, 0.0 ], [ -79.657640969201793, 0.376988260698006, 0.0 ], [ -79.658644682321821, 0.375609666774247, 0.0 ], [ -79.6582922598149, 0.374161970398169, 0.0 ], [ -79.659218232675997, 0.372693543286396, 0.0 ], [ -79.659219289116095, 0.372694362269572, 0.0 ], [ -79.659428229973798, 0.372185759239535, 0.0 ], [ -79.659679449059794, 0.372389528095355, 0.0 ], [ -79.660880698493401, 0.371343278394626, 0.0 ], [ -79.660897149762206, 0.37134437514596, 0.0 ], [ -79.6610107790803, 0.371268949513937, 0.0 ], [ -79.660988654899995, 0.3712634929, 0.0 ], [ -79.660905171200014, 0.3712919075, 0.0 ], [ -79.660890502900003, 0.371307414, 0.0 ], [ -79.660837026300001, 0.3712837771, 0.0 ], [ -79.660828393, 0.3712266963, 0.0 ], [ -79.660834092599998, 0.3711833619, 0.0 ], [ -79.660794139223597, 0.371174299304285, 0.0 ], [ -79.66075427592942, 0.371179408294199, 0.0 ], [ -79.660716272022398, 0.371184060414554, 0.0 ], [ -79.660688614522996, 0.371187067063681, 0.0 ], [ -79.660650833349194, 0.3711877544433, 0.0 ], [ -79.660624687779304, 0.37118373023597, 0.0 ], [ -79.660588, 0.3711734712, 0.0 ], [ -79.660563441, 0.3711809311, 0.0 ], [ -79.660432599499998, 0.3712707013, 0.0 ], [ -79.660265548200016, 0.3713445459, 0.0 ], [ -79.660243503700002, 0.3713628184, 0.0 ], [ -79.660196214190307, 0.371285409935412, 0.0 ], [ -79.660233321118497, 0.371263806446072, 0.0 ], [ -79.660323634700006, 0.3712412808, 0.0 ], [ -79.660431426, 0.3712084237, 0.0 ], [ -79.660549820255596, 0.371123076214618, 0.0 ], [ -79.660575430591095, 0.371096037339476, 0.0 ], [ -79.660727642500007, 0.3710335772, 0.0 ], [ -79.660759996600007, 0.3710600641, 0.0 ], [ -79.6608488448, 0.3710751515, 0.0 ], [ -79.660853790100006, 0.3710593097, 0.0 ], [ -79.660963928300006, 0.3710137121, 0.0 ], [ -79.661057805599995, 0.3709485009, 0.0 ], [ -79.661164004400007, 0.3708116245, 0.0 ], [ -79.661105666300017, 0.3705915157, 0.0 ], [ -79.661131147299997, 0.370530244, 0.0 ], [ -79.661130312743197, 0.370518288986116, 0.0 ], [ -79.659307029892702, 0.369428696554866, 0.0 ], [ -79.658930878074301, 0.369493607915138, 0.0 ], [ -79.657165365196008, 0.368863067601443, 0.0 ], [ -79.656787041007703, 0.368106419225009, 0.0 ], [ -79.657354527290096, 0.367412824879944, 0.0 ], [ -79.657102311164607, 0.366782284566249, 0.0 ], [ -79.655589014411703, 0.366467014409402, 0.0 ], [ -79.653949609596097, 0.36545814990749, 0.0 ], [ -79.653382123313804, 0.365142879750642, 0.0 ], [ -79.651805772529599, 0.364701501531056, 0.0 ], [ -79.650103313682607, 0.36407096121736, 0.0 ], [ -79.646383125831804, 0.362683772527231, 0.0 ], [ -79.644365396827993, 0.361674908025319, 0.0 ], [ -79.643671802482899, 0.361990178182167, 0.0 ], [ -79.642789046043703, 0.362368502370384, 0.0 ], [ -79.642095451698694, 0.36154879996258, 0.0 ], [ -79.640897425102594, 0.360729097554777, 0.0 ], [ -79.639321074318403, 0.36028771933519, 0.0 ], [ -79.638627479973294, 0.360476881429299, 0.0 ], [ -79.637996939659601, 0.359657179021495, 0.0 ], [ -79.637870831596899, 0.358333044362736, 0.0 ], [ -79.638186101753703, 0.356441423421651, 0.0 ], [ -79.637744723534198, 0.355495612951108, 0.0 ], [ -79.637618615471396, 0.354612856511935, 0.0 ], [ -79.640645208977205, 0.353225667821806, 0.0 ], [ -79.641591019447702, 0.353036505727698, 0.0 ], [ -79.642978208137805, 0.353036505727698, 0.0 ], [ -79.646698395988594, 0.353856208135501, 0.0 ], [ -79.648022530647395, 0.354802018606044, 0.0 ], [ -79.6506707999649, 0.355432558919739, 0.0 ], [ -79.651364394309994, 0.355495612951108, 0.0 ], [ -79.655589014411703, 0.356882801641237, 0.0 ], [ -79.657417581321397, 0.357387233892193, 0.0 ], [ -79.657858959541002, 0.357513341954932, 0.0 ], [ -79.658804770011599, 0.35776555808041, 0.0 ], [ -79.658741715980199, 0.357071963735346, 0.0 ], [ -79.658804770011599, 0.356378369390281, 0.0 ], [ -79.658993932105702, 0.355936991170695, 0.0 ], [ -79.659687526450796, 0.355684775045217, 0.0 ], [ -79.660381120795819, 0.355369504888369, 0.0 ], [ -79.660759444983995, 0.355369504888369, 0.0 ], [ -79.661011661109498, 0.355495612951108, 0.0 ], [ -79.6611377691722, 0.356378369390281, 0.0 ], [ -79.6612008232036, 0.356315315358912, 0.0 ], [ -79.66153964137051, 0.35975404681762, 0.0 ], [ -79.66124843117781, 0.360077613698464, 0.0 ], [ -79.660827794232702, 0.361048314340997, 0.0 ], [ -79.660633654104203, 0.361436594598011, 0.0 ], [ -79.660471870663699, 0.362148441735868, 0.0 ], [ -79.660471870663699, 0.362536721992881, 0.0 ], [ -79.660413136758194, 0.362605715416866, 0.0 ], [ -79.660455565899994, 0.3626079205, 0.0 ], [ -79.660525806199999, 0.3626438789, 0.0 ], [ -79.660582048799995, 0.3626645822, 0.0 ], [ -79.660649607, 0.3626828548, 0.0 ], [ -79.660744741599999, 0.3627238423, 0.0 ], [ -79.660784807100001, 0.3627521731, 0.0 ], [ -79.660854041600004, 0.3627838567, 0.0 ], [ -79.660903578599999, 0.3628271911, 0.0 ], [ -79.660954624400006, 0.3628567792, 0.0 ], [ -79.660995444299999, 0.3628803324, 0.0 ], [ -79.661082280800002, 0.3629116807, 0.0 ], [ -79.661138774799994, 0.3629381675, 0.0 ], [ -79.661172051, 0.3629493155, 0.0 ], [ -79.661183869499993, 0.362949064, 0.0 ], [ -79.661344802, 0.3630428575, 0.0 ], [ -79.661441948299995, 0.3631094098, 0.0 ], [ -79.661507327099997, 0.3631320409, 0.0 ], [ -79.661563569699993, 0.3631534986, 0.0 ], [ -79.661588463900003, 0.3631714359, 0.0 ], [ -79.661647304900001, 0.3632212244, 0.0 ], [ -79.66165040620001, 0.3632232361, 0.0 ], [ -79.661670522799994, 0.3632387426, 0.0 ], [ -79.661756437299999, 0.3632712644, 0.0 ], [ -79.661867246, 0.3633323684, 0.0 ], [ -79.661940839099998, 0.3633415885, 0.0 ], [ -79.662013929300002, 0.363364974, 0.0 ], [ -79.662104034799995, 0.3633928858, 0.0 ], [ -79.662167485799998, 0.363431694, 0.0 ], [ -79.662214927400001, 0.3634596895, 0.0 ], [ -79.662222806399996, 0.3634609468, 0.0 ], [ -79.662249041699994, 0.3634704184, 0.0 ], [ -79.662271672900005, 0.3634993359, 0.0 ], [ -79.662290113, 0.3635166865, 0.0 ], [ -79.662311235399997, 0.3635381442, 0.0 ], [ -79.662335459100007, 0.3635593504, 0.0 ], [ -79.662344176299996, 0.3635630384, 0.0 ], [ -79.662376362800003, 0.363585921, 0.0 ], [ -79.662404274599993, 0.3636190295, 0.0 ], [ -79.662446016399997, 0.3636724222, 0.0 ], [ -79.662490692, 0.3637244739, 0.0 ], [ -79.662497900399998, 0.3637403995, 0.0 ], [ -79.662533942600007, 0.3637923673, 0.0 ], [ -79.662541234900004, 0.3637972288, 0.0 ], [ -79.662547521299999, 0.3638000786, 0.0 ], [ -79.6625606809, 0.363799911, 0.0 ], [ -79.662591023399997, 0.3637405671, 0.0 ], [ -79.662618536641105, 0.363769674245301, 0.0 ], [ -79.662649406707004, 0.363777553163482, 0.0 ], [ -79.662690600399998, 0.3637763578, 0.0 ], [ -79.662750279500003, 0.3638310079, 0.0 ], [ -79.662871817099997, 0.3638324328, 0.0 ], [ -79.662881121, 0.3638292477, 0.0 ], [ -79.662928311200005, 0.3638428263, 0.0 ], [ -79.662941470700005, 0.3638695646, 0.0 ], [ -79.662994444399999, 0.3638946265, 0.0 ], [ -79.663053704399999, 0.3639163356, 0.0 ], [ -79.663113299800003, 0.3639688063, 0.0 ], [ -79.663174487700005, 0.3640005738, 0.0 ], [ -79.663231317, 0.3640835546, 0.0 ], [ -79.6632989589, 0.3641334269, 0.0 ], [ -79.663321673900001, 0.3641411383, 0.0 ], [ -79.663349250300001, 0.3641530406, 0.0 ], [ -79.663375066599997, 0.3641827963, 0.0 ], [ -79.663420831799996, 0.36423577, 0.0 ], [ -79.663487384099994, 0.3642895818, 0.0 ], [ -79.663538010799996, 0.3643084411, 0.0 ], [ -79.663615794899997, 0.3643530328, 0.0 ], [ -79.663637504, 0.3643499315, 0.0 ], [ -79.663701122600003, 0.3643734846, 0.0 ], [ -79.663795922, 0.3644159809, 0.0 ], [ -79.663801705500006, 0.3644196689, 0.0 ], [ -79.663866162299996, 0.3644749895, 0.0 ], [ -79.663966996599996, 0.36453031, 0.0 ], [ -79.664046205600002, 0.3645598143, 0.0 ], [ -79.664093311900004, 0.364597952, 0.0 ], [ -79.664109153699997, 0.3646274563, 0.0 ], [ -79.664185512800003, 0.3646917455, 0.0 ], [ -79.6642581001, 0.3647261951, 0.0 ], [ -79.664339069299999, 0.3647460602, 0.0 ], [ -79.664404196700005, 0.3647245187, 0.0 ], [ -79.664441915200001, 0.3647356667, 0.0 ], [ -79.664477454500002, 0.3647131193, 0.0 ], [ -79.664492961, 0.3647132032, 0.0 ], [ -79.664518525800005, 0.3647640813, 0.0 ], [ -79.664521962400002, 0.3647655901, 0.0 ], [ -79.6645299252, 0.3647961002, 0.0 ], [ -79.664516011299995, 0.3648135345, 0.0 ], [ -79.664549036, 0.3648609761, 0.0 ], [ -79.664606703399997, 0.3649120219, 0.0 ], [ -79.6646627784, 0.3649540991, 0.0 ], [ -79.664766378699994, 0.3650364093, 0.0 ], [ -79.664873499400016, 0.3650880419, 0.0 ], [ -79.664905602100006, 0.3651006147, 0.0 ], [ -79.664975758599994, 0.3651561029, 0.0 ], [ -79.664978021799996, 0.3651545104, 0.0 ], [ -79.665091009799994, 0.3652151115, 0.0 ], [ -79.665203243500002, 0.3652603738, 0.0 ], [ -79.6652620845, 0.3652993497, 0.0 ], [ -79.6653488372, 0.3653188795, 0.0 ], [ -79.665373228500002, 0.3653505631, 0.0 ], [ -79.665410863199995, 0.3653840907, 0.0 ], [ -79.665462831, 0.3654255811, 0.0 ], [ -79.665575735299996, 0.3654681612, 0.0 ], [ -79.665600545700002, 0.3654870205, 0.0 ], [ -79.665729627, 0.3655451071, 0.0 ], [ -79.665892403599997, 0.3656108212, 0.0 ], [ -79.666034476799993, 0.3656632081, 0.0 ], [ -79.666194319699997, 0.3656937182, 0.0 ], [ -79.6663198806, 0.3657653835, 0.0 ], [ -79.666410237600005, 0.3658144176, 0.0 ], [ -79.666440747699994, 0.3658395633, 0.0 ], [ -79.666509563100007, 0.3658548184, 0.0 ], [ -79.666534205900007, 0.3658730071, 0.0 ], [ -79.666621796800001, 0.365896225, 0.0 ], [ -79.666636968, 0.3659057803, 0.0 ], [ -79.666685666899994, 0.3659597598, 0.0 ], [ -79.666723050200005, 0.3659996577, 0.0 ], [ -79.666742496200001, 0.3659735899, 0.0 ], [ -79.6667930391, 0.3660079557, 0.0 ], [ -79.666815670199995, 0.3660127334, 0.0 ], [ -79.666879456499998, 0.3660563193, 0.0 ], [ -79.666966209199998, 0.3661144059, 0.0 ], [ -79.667070228599997, 0.3661729954, 0.0 ], [ -79.667138876400017, 0.3662166651, 0.0 ], [ -79.6671910118, 0.3662719857, 0.0 ], [ -79.667284218600003, 0.3663226124, 0.0 ], [ -79.667472224700006, 0.3664200939, 0.0 ], [ -79.667632570500004, 0.3665462416, 0.0 ], [ -79.667787971, 0.3666142188, 0.0 ], [ -79.667933145500001, 0.3666986246, 0.0 ], [ -79.668032554899995, 0.3667715471, 0.0 ], [ -79.668232295699994, 0.3668178152, 0.0 ], [ -79.6684207208, 0.3669071663, 0.0 ], [ -79.668545946500004, 0.3669856209, 0.0 ], [ -79.668688941699997, 0.3671043925, 0.0 ], [ -79.668762954, 0.3671813384, 0.0 ], [ -79.6687680669, 0.3671846073, 0.0 ], [ -79.668809808800006, 0.3672052268, 0.0 ], [ -79.668913912, 0.367255602, 0.0 ], [ -79.668960431599999, 0.3672976792, 0.0 ], [ -79.669016003600007, 0.3673273511, 0.0 ], [ -79.669067552300007, 0.3673543409, 0.0 ], [ -79.669117089400018, 0.367402453, 0.0 ], [ -79.669229909799995, 0.3674769681, 0.0 ], [ -79.669354213399998, 0.3675278462, 0.0 ], [ -79.669385729400005, 0.3675747011, 0.0 ], [ -79.669404923900004, 0.3675815742, 0.0 ], [ -79.669454880100005, 0.3676160239, 0.0 ], [ -79.669464435400002, 0.3676412534, 0.0 ], [ -79.669569209200006, 0.3676443547, 0.0 ], [ -79.6696689539, 0.3676673211, 0.0 ], [ -79.669702649100003, 0.3677088954, 0.0 ], [ -79.669783785899995, 0.367776705, 0.0 ], [ -79.669890822799999, 0.3678528126, 0.0 ], [ -79.669924518100004, 0.3678803891, 0.0 ], [ -79.669985035400003, 0.3679387271, 0.0 ], [ -79.670007498900006, 0.367979547, 0.0 ], [ -79.670059299100004, 0.3679722548, 0.0 ], [ -79.670124342700007, 0.368036963, 0.0 ], [ -79.670179830899997, 0.3680261504, 0.0 ], [ -79.670191481700002, 0.3680833988, 0.0 ], [ -79.670219225799997, 0.368126398, 0.0 ], [ -79.670281335699997, 0.3681631107, 0.0 ], [ -79.670376051199995, 0.3682210296, 0.0 ], [ -79.670428605799998, 0.3682385478, 0.0 ], [ -79.670448387, 0.3682674654, 0.0 ], [ -79.670469760900005, 0.3683302458, 0.0 ], [ -79.670498007899994, 0.3683569003, 0.0 ], [ -79.670517537699993, 0.368356565, 0.0 ], [ -79.670580234400006, 0.3684264701, 0.0 ], [ -79.6706089005, 0.3684182558, 0.0 ], [ -79.670631280199999, 0.3684323374, 0.0 ], [ -79.670608984300003, 0.3684936091, 0.0 ], [ -79.670651312900006, 0.3685440682, 0.0 ], [ -79.6706591919, 0.368610369, 0.0 ], [ -79.670694731200001, 0.3686536197, 0.0 ], [ -79.670727253, 0.3687321581, 0.0 ], [ -79.670849377300001, 0.3688003868, 0.0 ], [ -79.670892125, 0.3687755764, 0.0 ], [ -79.670900506899997, 0.3686842136, 0.0 ], [ -79.670907883, 0.368692847, 0.0 ], [ -79.670943338399994, 0.3687513527, 0.0 ], [ -79.670948451399994, 0.3687490057, 0.0 ], [ -79.671043250699995, 0.3687248658, 0.0 ], [ -79.671138972, 0.3687040787, 0.0 ], [ -79.671248942600002, 0.3687118739, 0.0 ], [ -79.6713506989, 0.3686614148, 0.0 ], [ -79.671446420300001, 0.3686156496, 0.0 ], [ -79.671510206500002, 0.3685910907, 0.0 ], [ -79.671542309200007, 0.3685746621, 0.0 ], [ -79.671547841299997, 0.3685568925, 0.0 ], [ -79.671617997799999, 0.368585391, 0.0 ], [ -79.671649932899996, 0.3685840499, 0.0 ], [ -79.671639958399993, 0.3686003108, 0.0 ], [ -79.671651776900006, 0.3686021548, 0.0 ], [ -79.671685639800003, 0.3685905878, 0.0 ], [ -79.671758143199995, 0.3685956169, 0.0 ], [ -79.671858558400004, 0.36861456, 0.0 ], [ -79.671932403, 0.3686814476, 0.0 ], [ -79.671990321899997, 0.3687412944, 0.0 ], [ -79.672068022199994, 0.3688165639, 0.0 ], [ -79.672064250299997, 0.3688847926, 0.0 ], [ -79.672038266400008, 0.3689578827, 0.0 ], [ -79.6720300522, 0.3690631595, 0.0 ], [ -79.672004906500007, 0.3691950906, 0.0 ], [ -79.672087300599998, 0.3693007026, 0.0 ], [ -79.6721526794, 0.3693737928, 0.0 ], [ -79.672220908100002, 0.3694341425, 0.0 ], [ -79.672264996899997, 0.3694483917, 0.0 ], [ -79.672273797900004, 0.3694212344, 0.0 ], [ -79.672283185599994, 0.3694469668, 0.0 ], [ -79.672328615599994, 0.3694994375, 0.0 ], [ -79.672309588600001, 0.3696337994, 0.0 ], [ -79.672325095199994, 0.3696933948, 0.0 ], [ -79.672348480699995, 0.369753493, 0.0 ], [ -79.672348732100005, 0.3698533215, 0.0 ], [ -79.672289723500015, 0.3700005077, 0.0 ], [ -79.672272792100003, 0.3701530583, 0.0 ], [ -79.672261560300001, 0.370254647, 0.0 ], [ -79.672201462100006, 0.3703788668, 0.0 ], [ -79.672201797400007, 0.3705083672, 0.0 ], [ -79.67217925, 0.3706278093, 0.0 ], [ -79.672129126300007, 0.3707273025, 0.0 ], [ -79.672146895899999, 0.37080626, 0.0 ], [ -79.672319982199994, 0.3710175678, 0.0 ], [ -79.672430371900006, 0.3711668495, 0.0 ], [ -79.672450320799996, 0.3713433724, 0.0 ], [ -79.672414865299999, 0.3715132736, 0.0 ], [ -79.672419894499996, 0.3716477193, 0.0 ], [ -79.672412518399994, 0.3716863599, 0.0 ], [ -79.672406818699997, 0.3717341367, 0.0 ], [ -79.6723546833, 0.3719244059, 0.0 ], [ -79.672327442099999, 0.3720142599, 0.0 ], [ -79.672300871499999, 0.3720462788, 0.0 ], [ -79.6723582037, 0.3722137492, 0.0 ], [ -79.672370944199997, 0.3722732607, 0.0 ], [ -79.672464989100007, 0.3724029288, 0.0 ], [ -79.672569762899997, 0.3724761028, 0.0 ], [ -79.672645703, 0.3725877497, 0.0 ], [ -79.672664394600019, 0.3726102132, 0.0 ], [ -79.672736479, 0.3727568127, 0.0 ], [ -79.672818621600001, 0.3728962038, 0.0 ], [ -79.672767575799995, 0.3731060866, 0.0 ], [ -79.672705298300002, 0.3732411191, 0.0 ], [ -79.672684762599999, 0.3733006306, 0.0 ], [ -79.672693479800003, 0.3734031413, 0.0 ], [ -79.672705046800004, 0.3734391835, 0.0 ], [ -79.67271636240001, 0.3735576198, 0.0 ], [ -79.672776628299999, 0.3736256808, 0.0 ], [ -79.672893472, 0.3736049775, 0.0 ], [ -79.672970417900004, 0.3735765629, 0.0 ], [ -79.673096900800005, 0.3735830169, 0.0 ], [ -79.673113245500005, 0.3735868726, 0.0 ], [ -79.673217264900003, 0.3736027144, 0.0 ], [ -79.673328073700006, 0.3735268582, 0.0 ], [ -79.673375515300009, 0.3735043108, 0.0 ], [ -79.673513816699995, 0.3735328931, 0.0 ], [ -79.673685394200007, 0.3736549336, 0.0 ], [ -79.673742810299998, 0.3737592045, 0.0 ], [ -79.673857307099993, 0.3738680016, 0.0 ], [ -79.673926709200003, 0.374039663, 0.0 ], [ -79.6740466543, 0.3742298484, 0.0 ], [ -79.674137514099996, 0.374368066, 0.0 ], [ -79.674189984799995, 0.3745108098, 0.0 ], [ -79.674276318400004, 0.3746023402, 0.0 ], [ -79.674321748300002, 0.3747025039, 0.0 ], [ -79.674392240100005, 0.3747895081, 0.0 ], [ -79.674449656199997, 0.374885397, 0.0 ], [ -79.674531547399994, 0.374921523, 0.0 ], [ -79.674567505699997, 0.3749703057, 0.0 ], [ -79.674627017199995, 0.3750356007, 0.0 ], [ -79.674719050500002, 0.3751342557, 0.0 ], [ -79.674791637799999, 0.3752734791, 0.0 ], [ -79.674822064099999, 0.3754902352, 0.0 ], [ -79.674848634699998, 0.3755963501, 0.0 ], [ -79.674886772400001, 0.3756619804, 0.0 ], [ -79.674889203199996, 0.3756853659, 0.0 ], [ -79.674895405800001, 0.3757184744, 0.0 ], [ -79.674891298600016, 0.3757288679, 0.0 ], [ -79.674923736599993, 0.3757486492, 0.0 ], [ -79.674955168699995, 0.3758605476, 0.0 ], [ -79.675009818700005, 0.376005806, 0.0 ], [ -79.675004035200004, 0.3761074785, 0.0 ], [ -79.674990540400003, 0.3762104083, 0.0 ], [ -79.674972351600019, 0.376328174, 0.0 ], [ -79.674963299200002, 0.3764331993, 0.0 ], [ -79.674956509799998, 0.3765264899, 0.0 ], [ -79.6749997605, 0.3766821418, 0.0 ], [ -79.674992132900002, 0.3768021706, 0.0 ], [ -79.6749869362, 0.3769226186, 0.0 ], [ -79.674986098, 0.3769306652, 0.0 ], [ -79.674991546200005, 0.3770259675, 0.0 ], [ -79.674993641699999, 0.3771822061, 0.0 ], [ -79.6749876067, 0.377262421, 0.0 ], [ -79.674990121299999, 0.3773205914, 0.0 ], [ -79.674982326099993, 0.3774272092, 0.0 ], [ -79.674998670799994, 0.3775088489, 0.0 ], [ -79.674987522899997, 0.3775253613, 0.0 ], [ -79.674983080500013, 0.3775598109, 0.0 ], [ -79.674972603100002, 0.3776354995, 0.0 ], [ -79.674926670299996, 0.3776512574, 0.0 ], [ -79.674924239500001, 0.3776899818, 0.0 ], [ -79.674927508500005, 0.3777154628, 0.0 ], [ -79.674954414400005, 0.3777994495, 0.0 ], [ -79.674862800200003, 0.3778423648, 0.0 ], [ -79.674795912600004, 0.3778162971, 0.0 ], [ -79.674803623900004, 0.3778772335, 0.0 ], [ -79.674738580400003, 0.3779788222, 0.0 ], [ -79.674557950299999, 0.3780607134, 0.0 ], [ -79.674471449099997, 0.3781948239, 0.0 ], [ -79.674455272, 0.3782801516, 0.0 ], [ -79.674422163499997, 0.3783835843, 0.0 ], [ -79.674428114700007, 0.37844209, 0.0 ], [ -79.674459463, 0.378543511, 0.0 ], [ -79.674501707800005, 0.3786075488, 0.0 ], [ -79.674516879, 0.3786295932, 0.0 ], [ -79.674523500700005, 0.3786286712, 0.0 ], [ -79.674542946700001, 0.3787152562, 0.0 ], [ -79.674555352, 0.3787896037, 0.0 ], [ -79.674591310300002, 0.3788714949, 0.0 ], [ -79.674601536200001, 0.3789732512, 0.0 ], [ -79.674614779699994, 0.3790315893, 0.0 ], [ -79.674579994799998, 0.3791482653, 0.0 ], [ -79.674565745500004, 0.3791696392, 0.0 ], [ -79.6745195612, 0.3792848904, 0.0 ], [ -79.674444962300001, 0.3793296497, 0.0 ], [ -79.674335075500011, 0.3793975431, 0.0 ], [ -79.674224937299996, 0.3795176558, 0.0 ], [ -79.6741814353, 0.3795483336, 0.0 ], [ -79.674147404699994, 0.3796177357, 0.0 ], [ -79.674113290400001, 0.3797152173, 0.0 ], [ -79.674099292600005, 0.3797796741, 0.0 ], [ -79.674097867699999, 0.3797851223, 0.0 ], [ -79.674150086899999, 0.3798872139, 0.0 ], [ -79.6741743945, 0.3799652494, 0.0 ], [ -79.6741836984, 0.3801084962, 0.0 ], [ -79.674227535699998, 0.380187789, 0.0 ], [ -79.674314372200001, 0.3802902158, 0.0 ], [ -79.674345972, 0.380406389, 0.0 ], [ -79.674380673100003, 0.380484676, 0.0 ], [ -79.674431802699999, 0.3806181159, 0.0 ], [ -79.674446387200007, 0.3806706704, 0.0 ], [ -79.674548814100007, 0.3806720953, 0.0 ], [ -79.674567086600021, 0.3807477839, 0.0 ], [ -79.674607152099995, 0.3809278272, 0.0 ], [ -79.674582006400001, 0.3810486104, 0.0 ], [ -79.674537247, 0.3810973093, 0.0 ], [ -79.674614360600003, 0.3811009973, 0.0 ], [ -79.674551496299998, 0.3811419848, 0.0 ], [ -79.674523919799995, 0.3811285738, 0.0 ], [ -79.6744638216, 0.3811407275, 0.0 ], [ -79.674328453800001, 0.3811514564, 0.0 ], [ -79.674291154400009, 0.3811693098, 0.0 ], [ -79.674265757200004, 0.3811862413, 0.0 ], [ -79.674250334500016, 0.3811979759, 0.0 ], [ -79.674218902400014, 0.3812233731, 0.0 ], [ -79.674215968699997, 0.3812273126, 0.0 ], [ -79.674176154700007, 0.3812273126, 0.0 ], [ -79.674140783, 0.3812318388, 0.0 ], [ -79.674091665099994, 0.3812371194, 0.0 ], [ -79.674063837199995, 0.38127576, 0.0 ], [ -79.6740281302, 0.3812691383, 0.0 ], [ -79.674017652900005, 0.3812653664, 0.0 ], [ -79.673978844700002, 0.3812759276, 0.0 ], [ -79.673973564099995, 0.3812791128, 0.0 ], [ -79.673943473, 0.3812931944, 0.0 ], [ -79.673909358700001, 0.3813260514, 0.0 ], [ -79.673900641499998, 0.3813273925, 0.0 ], [ -79.673858229100006, 0.3813569807, 0.0 ], [ -79.673856636500005, 0.3813935257, 0.0 ], [ -79.673830904100001, 0.3814160731, 0.0 ], [ -79.673788910699997, 0.3814189229, 0.0 ], [ -79.673744151400001, 0.3814018238, 0.0 ], [ -79.673689836600019, 0.381385982, 0.0 ], [ -79.673664355699998, 0.3813966271, 0.0 ], [ -79.673615237700005, 0.3814234491, 0.0 ], [ -79.673574585500006, 0.3814405482, 0.0 ], [ -79.673566455, 0.3814701363, 0.0 ], [ -79.673527395400001, 0.3814812843, 0.0 ], [ -79.6734925266, 0.3814839665, 0.0 ], [ -79.673470566, 0.3814858943, 0.0 ], [ -79.673447096700002, 0.3815046698, 0.0 ], [ -79.673427064, 0.3815100342, 0.0 ], [ -79.6733953707392, 0.381551185581356, 0.0 ], [ -79.673370702215706, 0.381606454052924, 0.0 ], [ -79.673369565765199, 0.381609000207906, 0.0 ], [ -79.673369820373196, 0.381610368725942, 0.0 ], [ -79.673358416, 0.381637942000054, 212.991449937475011 ] ], [ [ -79.661307670200003, 0.3689558711, 0.0 ], [ -79.661293987705605, 0.368955153479073, 0.0 ], [ -79.661295742278597, 0.368982294530813, 0.0 ], [ -79.661307670200003, 0.3689558711, 0.0 ] ] ], [ [ [ -79.654542468499997, 0.4002204537, 542.88 ], [ -79.654530566199995, 0.4002553225, 542.04 ], [ -79.654455548200019, 0.4002163466, 539.13 ], [ -79.654437527100001, 0.4001855012, 536.36 ], [ -79.654434593399998, 0.4002304282, 533.05 ], [ -79.654366197100003, 0.400195308, 529.65 ], [ -79.654232170399993, 0.4001750238, 527.06 ], [ -79.654163355, 0.4000219703, 523.7 ], [ -79.654119433800005, 0.3999808989, 522.82 ], [ -79.654064951500004, 0.3998695035, 520.17 ], [ -79.653852302600001, 0.3997964971, 517.15 ], [ -79.653824055599998, 0.3997714352, 514.03 ], [ -79.653742583500005, 0.3997756261, 513.97 ], [ -79.653680054500001, 0.3997201379, 512.74 ], [ -79.653580980399994, 0.3996568546, 511.41 ], [ -79.653411414499999, 0.3996055573, 508.13 ], [ -79.653381155800005, 0.3995980974, 511.08 ], [ -79.6533182915, 0.3995511588, 512.43 ], [ -79.653217457200014, 0.3995164577, 512.32 ], [ -79.653161130800001, 0.3994986042, 513.26 ], [ -79.653116958200016, 0.3994942456, 513.62 ], [ -79.653074210499994, 0.3994577006, 511.44 ], [ -79.653026266, 0.3994035535, 509.23 ], [ -79.652970107300007, 0.3993724566, 507.99 ], [ -79.652933310700007, 0.3993342351, 506.7 ], [ -79.652874721200007, 0.3992937505, 504.77 ], [ -79.6528271958, 0.3992697783, 501.69 ], [ -79.652804564700006, 0.3992551938, 498.73 ], [ -79.6527650859, 0.3992173914, 495.6 ], [ -79.652712447599995, 0.3991634957, 494.08 ], [ -79.652655869699998, 0.3991116956, 495.86 ], [ -79.6525483299, 0.3990658466, 494.95 ], [ -79.652505833700005, 0.3990614042, 493.04 ], [ -79.652399718799998, 0.3990198299, 490.97 ], [ -79.652306595799999, 0.3990057483, 489.14 ], [ -79.652334507600003, 0.3990205843, 489.67 ], [ -79.652300644700006, 0.3990117833, 487.72 ], [ -79.652287233600006, 0.3990050778, 486.99 ], [ -79.652294945, 0.3990249429, 485.01 ], [ -79.652247754900003, 0.3990054131, 481.92 ], [ -79.652186567, 0.3989857156, 479.65 ], [ -79.652181454, 0.3989797644, 477.29 ], [ -79.652153793699995, 0.3989692032, 474.43 ], [ -79.65216938410002, 0.398942465, 472.27 ], [ -79.652143903099997, 0.3989566304, 470.71 ], [ -79.652081122599995, 0.3989441413, 467.66 ], [ -79.652074584700003, 0.3989849612, 464.59 ], [ -79.652004428200001, 0.398977669, 461.77 ], [ -79.651977019399993, 0.3989074286, 460.13 ], [ -79.651947179800004, 0.3988903295, 457.48 ], [ -79.651903510100013, 0.3988822829, 455.01 ], [ -79.651871072099993, 0.3988889046, 453.05 ], [ -79.651821367400004, 0.3988927603, 450.71 ], [ -79.651784822300002, 0.398879936, 447.63 ], [ -79.651764454299993, 0.3988530301, 446.45 ], [ -79.651734530900001, 0.3988710511, 443.38 ], [ -79.6516736783, 0.3988600709, 440.3 ], [ -79.651654064699997, 0.3988628369, 439.36 ], [ -79.651646018, 0.3988624178, 438.63 ], [ -79.651536466600007, 0.3988437261, 435.12 ], [ -79.651475362499994, 0.398868788, 431.78 ], [ -79.651408223399997, 0.3988497611, 428.44 ], [ -79.651379808800002, 0.3988691233, 425.06 ], [ -79.651333037800001, 0.3988863062, 422.47 ], [ -79.651280483199997, 0.3988656029, 419.48 ], [ -79.651062134699998, 0.3987854719, 417.52 ], [ -79.650893826, 0.3987461608, 416.28 ], [ -79.650805816100018, 0.3987017367, 418.59 ], [ -79.650766253499995, 0.3986834642, 418.6 ], [ -79.6507157944, 0.398668712, 415.44 ], [ -79.650672711400006, 0.3986862302, 413.01 ], [ -79.650618229100004, 0.3987200093, 410.53 ], [ -79.650576906300003, 0.3987615835, 407.3 ], [ -79.650565842199995, 0.3987827897, 405.11 ], [ -79.650530638199996, 0.3987300675, 403.35 ], [ -79.650513622899993, 0.3987131361, 400.63 ], [ -79.650487136099997, 0.3986917622, 398.88 ], [ -79.650467187199993, 0.3987221047, 397.2 ], [ -79.650440281300007, 0.3987435624, 394.09 ], [ -79.650393258799994, 0.3987396229, 392.05 ], [ -79.650343637899994, 0.398759488, 388.86 ], [ -79.650308182499998, 0.3987670317, 385.82 ], [ -79.650269877200003, 0.3988068458, 383.77 ], [ -79.650223357599998, 0.3988065105, 382.35 ], [ -79.650151105600003, 0.3988323268, 381.46 ], [ -79.650073573, 0.3988316562, 381.58 ], [ -79.649981791200005, 0.3988402057, 380.23 ], [ -79.649910880299998, 0.3988371883, 378.51 ], [ -79.649858409499998, 0.3988423012, 376.34 ], [ -79.649743912700004, 0.3988776729, 375.15 ], [ -79.649648107600001, 0.3988926765, 374.51 ], [ -79.649581387599994, 0.3988976218, 374.87 ], [ -79.649478793100002, 0.3988782596, 373.37 ], [ -79.6494079661, 0.3988812771, 371.86 ], [ -79.649338647700006, 0.3988820314, 370.26 ], [ -79.649238903099999, 0.3988958616, 367.37 ], [ -79.649173021300001, 0.3989145532, 366.38 ], [ -79.649101775099993, 0.3989122901, 363.67 ], [ -79.649034887599996, 0.3989254497, 360.51 ], [ -79.648940675, 0.3989473265, 357.47 ], [ -79.648828692699993, 0.3989579715, 354.91 ], [ -79.648756356899995, 0.398970712, 351.68 ], [ -79.648737665300004, 0.3989747353, 349.86 ], [ -79.648720901499999, 0.3989785071, 350.02 ], [ -79.648706652200005, 0.3989748191, 349.21 ], [ -79.648664491299996, 0.3989810217, 347.02 ], [ -79.648669771900003, 0.3989866376, 345.74 ], [ -79.648675639199993, 0.3990028147, 343.92 ], [ -79.648637501500005, 0.3990009706, 342.93 ], [ -79.648617636400004, 0.3990028147, 342.77 ], [ -79.648617720199994, 0.3989842907, 344.02 ], [ -79.648617301100003, 0.3989847098, 344.02 ], [ -79.648603722499999, 0.3989943489, 351.4 ], [ -79.648612104400001, 0.3989961091, 350.74 ], [ -79.648593412699995, 0.3990004677, 350.75 ], [ -79.64809301933613, 0.39903122524622, 351.37 ], [ -79.648098148475668, 0.398969385085522, 350.81 ], [ -79.648077683234234, 0.398902387273598, 350.7 ], [ -79.648041865905199, 0.39880446641978, 348.86 ], [ -79.648000928689129, 0.398711698139431, 348.1 ], [ -79.647975353645208, 0.398588011898307, 347.71 ], [ -79.647878127111341, 0.398371552313785, 348.67 ], [ -79.647642683891789, 0.398170530169315, 349.94 ], [ -79.647678533144884, 0.398072621175387, 351.58 ], [ -79.647980599478075, 0.397809846767381, 351.34 ], [ -79.648225442058248, 0.39766524048782, 350.4 ], [ -79.648361288560324, 0.397432837767154, 349.86 ], [ -79.648440382609436, 0.397298355295304, 349.27 ], [ -79.648501279589766, 0.397228314530172, 349.17 ], [ -79.648570885889185, 0.397088224398176, 348.32 ], [ -79.648649200072882, 0.396886841241082, 347.44 ], [ -79.648649235595514, 0.39666793250013, 345.65 ], [ -79.64867534788695, 0.39655410424367, 342.81 ], [ -79.648681959399539, 0.396428776947267, 343.69 ], [ -79.649441829, 0.3965088632, 342.47 ], [ -79.649493880600005, 0.3965191729, 343.71 ], [ -79.649565964900006, 0.3965214361, 343.31 ], [ -79.649653639600004, 0.3965242021, 343.93 ], [ -79.649701416499994, 0.3965337574, 343.8 ], [ -79.649797808399995, 0.3965663631, 344.63 ], [ -79.649869054600003, 0.3965750802, 345.56 ], [ -79.649943066800006, 0.3965943586, 345.08 ], [ -79.649949939899997, 0.3965507727, 345.8 ], [ -79.649954382299995, 0.3964755032, 346.19 ], [ -79.650000315200003, 0.396411214, 346.57 ], [ -79.650024203599997, 0.3963715676, 346.67 ], [ -79.650024035900003, 0.3963279817, 349.02 ], [ -79.650044236300005, 0.3962955438, 350.83 ], [ -79.650055216599995, 0.3962869104, 351.63 ], [ -79.650078099200002, 0.396243073, 354.77 ], [ -79.650083966599993, 0.3962168377, 356.52 ], [ -79.650093270499994, 0.3961908538, 359.36 ], [ -79.650111291599998, 0.3961511236, 361.96 ], [ -79.6500988863, 0.3961230442, 364.9 ], [ -79.6500966232, 0.3960679751, 367.74 ], [ -79.650115314900006, 0.3959640395, 366.93 ], [ -79.650125959899995, 0.395941576, 363.83 ], [ -79.650130737599994, 0.3959162626, 361.59 ], [ -79.650146076499993, 0.3958855849, 358.46 ], [ -79.650139370900007, 0.3958332818, 355.96 ], [ -79.6501216013, 0.395780392, 352.87 ], [ -79.650051528784942, 0.395696724042395, 354.11 ], [ -79.649989085522165, 0.395656740455282, 356.33 ], [ -79.649982723128971, 0.395636580438799, 356.51 ], [ -79.649399109445611, 0.395603154237522, 356.71 ], [ -79.649712993200822, 0.395452400362186, 357.94 ], [ -79.649775293562897, 0.395142649855735, 357.93 ], [ -79.649834031521479, 0.394865128188956, 358.3 ], [ -79.649545939598909, 0.394628731884679, 358.04 ], [ -79.648963551323476, 0.394082351522466, 357.53 ], [ -79.650928275699997, 0.3945734818, 358.56 ], [ -79.650927605099994, 0.3945703804, 358.78 ], [ -79.650993319199998, 0.3945754934, 360.06 ], [ -79.650995833799996, 0.3945786785, 360.29 ], [ -79.65101243, 0.3945871443, 363.29 ], [ -79.651061464099996, 0.3946283832, 366.55 ], [ -79.6510724444, 0.3945959453, 366.8 ], [ -79.651086609800004, 0.394602064, 368.55 ], [ -79.651121562300006, 0.394606255, 370.51 ], [ -79.6511787269, 0.3946114518, 374.03 ], [ -79.651201358099996, 0.3946245275, 375.1 ], [ -79.651215020600006, 0.3946726397, 378.18 ], [ -79.651238154599994, 0.3946851287, 380.64 ], [ -79.651259528500006, 0.3947121184, 383.39 ], [ -79.651320129599995, 0.3947536927, 385.5 ], [ -79.651362039099993, 0.3947510105, 388.46 ], [ -79.651375114900006, 0.3947676066, 391.05 ], [ -79.651406379400001, 0.39475495, 394.01 ], [ -79.6514233109, 0.3947857954, 396.39 ], [ -79.651470752400002, 0.3947893996, 399.45 ], [ -79.651492796799999, 0.3948031459, 401.02 ], [ -79.651515847100015, 0.3948064987, 403.58 ], [ -79.651542753, 0.3947997093, 405.89 ], [ -79.651582147900001, 0.3948080912, 408.89 ], [ -79.651618693, 0.3948432114, 410.89 ], [ -79.651645347499993, 0.3948715422, 412.67 ], [ -79.651690442100005, 0.3948596399, 415.82 ], [ -79.651723383, 0.3949132003, 417.38 ], [ -79.651754731300002, 0.3949035611, 420.74 ], [ -79.651808040199995, 0.394914709, 422.71 ], [ -79.651852212799994, 0.3949092608, 425.76 ], [ -79.651896720799996, 0.3949624021, 428.54 ], [ -79.651943408, 0.3949655872, 431.67 ], [ -79.651990346600002, 0.3950066585, 434.71 ], [ -79.652043907, 0.3950258531, 437.24 ], [ -79.652078859499994, 0.3950434551, 438.61 ], [ -79.652134096200015, 0.3950374201, 441.46 ], [ -79.652167456200019, 0.3950405214, 443.05 ], [ -79.6522150654, 0.3950655833, 444.22 ], [ -79.6522659436, 0.3950816765, 445.1 ], [ -79.652309529500002, 0.3951544315, 448.14 ], [ -79.652325036, 0.3951447085, 449.73 ], [ -79.652364179499997, 0.395141691, 454.49 ], [ -79.652370148615489, 0.395143859278918, 456.61 ], [ -79.652413968, 0.3951426968, 459.07 ], [ -79.652493093199993, 0.3951646574, 462.06 ], [ -79.65256073510001, 0.3952147812, 465.14 ], [ -79.6525976155, 0.3952384181, 467.51 ], [ -79.652646565799998, 0.3952639829, 470.34 ], [ -79.652729630500005, 0.3952649049, 472.95 ], [ -79.652809593800001, 0.3953017015, 474.11 ], [ -79.652866423099994, 0.3953322116, 477.22 ], [ -79.652936412, 0.3953617159, 478.82 ], [ -79.653013190300001, 0.3953909688, 481.2 ], [ -79.653058620199999, 0.395405218, 482.08 ], [ -79.653120730100014, 0.3954459541, 485.22 ], [ -79.653170267100009, 0.3954735305, 488.4 ], [ -79.653237406200006, 0.3955119196, 490.56 ], [ -79.653380988199999, 0.3955540806, 491.81 ], [ -79.653494143900005, 0.3955852613, 492.87 ], [ -79.6535596903, 0.3956073057, 494.03 ], [ -79.653615010899998, 0.3956124187, 495.21 ], [ -79.653672846, 0.3956342954, 497.78 ], [ -79.653743170200002, 0.3956684098, 500.82 ], [ -79.653805196299999, 0.3957059607, 503.86 ], [ -79.653868982600002, 0.3957378957, 506.91 ], [ -79.6539070364, 0.3957528993, 509.38 ], [ -79.653963027499998, 0.3957912046, 511.82 ], [ -79.654036704500001, 0.3958208766, 515.36 ], [ -79.654087247299998, 0.3958432563, 518.05 ], [ -79.654132761100001, 0.3958904464, 521.09 ], [ -79.654140053299997, 0.3958927095, 521.76 ], [ -79.654160169899995, 0.395879047, 523.56 ], [ -79.654178442399996, 0.3958529793, 523.61 ], [ -79.65418514800001, 0.3958445136, 523.6 ], [ -79.654234098299995, 0.395766478, 522.14 ], [ -79.654256226499996, 0.3957519773, 520.7 ], [ -79.654300818200014, 0.3956828266, 520.11 ], [ -79.654400227599993, 0.3955969121, 518.54 ], [ -79.654417745800004, 0.3955354728, 515.34 ], [ -79.654406765499999, 0.3955041245, 513.95 ], [ -79.654434425800005, 0.3954789788, 515.02 ], [ -79.654446579500004, 0.3953730315, 514.13 ], [ -79.654497960599997, 0.3953267634, 511.91 ], [ -79.654544647799995, 0.3953048866, 510.26 ], [ -79.654568284700005, 0.3952225763, 510.25 ], [ -79.654590077700007, 0.3951720335, 509.56 ], [ -79.654632322500007, 0.3951540962, 509.87 ], [ -79.654683535900006, 0.3951369133, 509.89 ], [ -79.654712704900007, 0.3951478936, 511.53 ], [ -79.654771629699994, 0.3951890487, 514.82 ], [ -79.654793590300002, 0.3951892164, 516.42 ], [ -79.654837846800007, 0.3952053934, 518.85 ], [ -79.654870117100003, 0.3952061478, 522.0 ], [ -79.654930466799996, 0.3952035494, 524.58 ], [ -79.654993247199997, 0.3952012863, 525.99 ], [ -79.655061727399996, 0.3952396754, 528.33 ], [ -79.655121155100005, 0.3952639829, 529.28 ], [ -79.655187120700006, 0.3952921461, 530.01 ], [ -79.655288960799993, 0.3953421023, 532.92 ], [ -79.655340928599998, 0.3953446168, 535.65 ], [ -79.655348304699999, 0.3953479696, 536.18 ], [ -79.655399182799997, 0.3953540884, 539.38 ], [ -79.655490126499998, 0.3954328783, 541.18 ], [ -79.655528767, 0.3954625502, 541.32 ], [ -79.655585512499997, 0.3955084831, 541.53 ], [ -79.655631613, 0.3955612052, 538.46 ], [ -79.6556492988, 0.3955623787, 536.31 ], [ -79.655720880299995, 0.3955686651, 533.02 ], [ -79.655804196399998, 0.395590961, 529.94 ], [ -79.655804028700004, 0.3955887817, 529.71 ], [ -79.655903102799996, 0.3955978341, 526.64 ], [ -79.655920956299994, 0.395611329, 530.01 ], [ -79.655926320700004, 0.3956156038, 530.63 ], [ -79.655997902199999, 0.3956433479, 533.96 ], [ -79.656047523, 0.3956714272, 532.4 ], [ -79.656092785300004, 0.3957070503, 533.4 ], [ -79.65612111610001, 0.3957164381, 535.66 ], [ -79.656186746399996, 0.3957445174, 538.01 ], [ -79.656242821399999, 0.395785002, 539.33 ], [ -79.656294453900003, 0.3958186135, 541.42 ], [ -79.656330328400003, 0.395877203, 543.36 ], [ -79.656398808600002, 0.3958900273, 544.31 ], [ -79.656512299599996, 0.395931853, 544.19 ], [ -79.656592011499995, 0.3960266523, 544.49 ], [ -79.656726373400005, 0.396132851, 544.25 ], [ -79.657387614692894, 0.396451847382565, 244.828842897669034 ], [ -79.657390733795495, 0.396446648878148, 488.46 ], [ -79.657466914500006, 0.3963875771, 484.81 ], [ -79.657469429100004, 0.3963956237, 481.18 ], [ -79.657468758500002, 0.3963851463, 480.75 ], [ -79.65762835, 0.3962728288, 486.41 ], [ -79.65767680910055, 0.396199814883142, 489.61 ], [ -79.657764714728629, 0.396107282643064, 490.18 ], [ -79.657927248600004, 0.3960025962, 491.08 ], [ -79.658091031, 0.3958902787, 478.18 ], [ -79.658191194799997, 0.3957583476, 468.98 ], [ -79.658241821499999, 0.3956715111, 465.63 ], [ -79.658356921065135, 0.39549656985855, 447.06 ], [ -79.658472586365221, 0.395380904558453, 445.03 ], [ -79.658643771009366, 0.395209719914309, 431.83 ], [ -79.658720009, 0.3951526713, 428.76 ], [ -79.658777942757482, 0.395043161882168, 427.68 ], [ -79.658854454799993, 0.3950007912, 426.24 ], [ -79.658893608057596, 0.394908990134056, 424.14 ], [ -79.659050912865723, 0.394760938549931, 412.98 ], [ -79.659166578165824, 0.39464064663783, 396.46 ], [ -79.659432079825223, 0.394356666436754, 396.2 ], [ -79.659754157864484, 0.393942028179917, 0.0 ], [ -79.660040997, 0.3937342018, 314.96 ], [ -79.660395467699999, 0.3934526537, 304.63 ], [ -79.660425016630882, 0.393400714620786, 301.31 ], [ -79.660489789198934, 0.393326688828724, 298.96 ], [ -79.660566542300018, 0.3932836745, 295.75 ], [ -79.660699479300007, 0.3931448702, 285.38 ], [ -79.660710962500005, 0.3931346443, 283.65 ], [ -79.660718254700001, 0.393132465, 282.74 ], [ -79.660841411711203, 0.39296581309242, 276.83 ], [ -79.660910810891266, 0.392873280852342, 274.19 ], [ -79.660935178399995, 0.3928533476, 271.14 ], [ -79.660997958899998, 0.392811019, 267.87 ], [ -79.661068115399999, 0.3927478194, 264.85 ], [ -79.661223851100004, 0.3926080093, 251.94 ], [ -79.6614840254, 0.3924081009, 233.0 ], [ -79.661546973499995, 0.3923402913, 229.8 ], [ -79.661567789795811, 0.392294954351855, 228.6 ], [ -79.661607071800006, 0.3922328353, 225.32 ], [ -79.661623081200005, 0.3921920992, 224.74 ], [ -79.661660967399996, 0.3921379521, 221.73 ], [ -79.661735817799993, 0.392082883, 219.07 ], [ -79.661799120395997, 0.391984971347595, 216.01 ], [ -79.661898762, 0.3918906022, 213.76 ], [ -79.661937318699998, 0.3918611817, 213.24 ], [ -79.662170419500001, 0.3916856647, 205.75 ], [ -79.662276534399993, 0.3916110657, 203.02 ], [ -79.662424391100004, 0.3915540688, 285.53 ], [ -79.662453308699995, 0.391558595, 285.92 ], [ -79.662561351400001, 0.39158592, 285.35 ], [ -79.6626657061, 0.3916891851, 284.87 ], [ -79.662717506299998, 0.3917818889, 285.21 ], [ -79.662776347200008, 0.3918305878, 285.29 ], [ -79.662816915700006, 0.391894877, 285.22 ], [ -79.662880366699994, 0.3920082003, 285.71 ], [ -79.662874415499999, 0.3921729047, 285.75 ], [ -79.662750782399996, 0.3922864795, 285.7 ], [ -79.662776850200004, 0.3924700432, 285.98 ], [ -79.662829907599999, 0.3925253637, 285.87 ], [ -79.662886150199995, 0.3926040698, 286.26 ], [ -79.662946835200003, 0.3927015513, 285.97 ], [ -79.662991091600006, 0.3927220032, 286.19 ], [ -79.663054291200012, 0.392801296, 286.04 ], [ -79.663170464300009, 0.3928883001, 287.39 ], [ -79.663208182899993, 0.3929266892, 287.32 ], [ -79.6633412037, 0.3929761425, 287.39 ], [ -79.663440026300009, 0.3929758072, 287.39 ], [ -79.663530802400004, 0.3929948341, 287.61 ], [ -79.663584362700007, 0.3930144478, 287.86 ], [ -79.663661811500006, 0.3930976801, 287.89 ], [ -79.663657872, 0.3932242468, 288.22 ], [ -79.663647059400006, 0.3934121691, 288.75 ], [ -79.663602383799997, 0.3934778832, 288.49 ], [ -79.663494173399997, 0.3935464472, 288.36 ], [ -79.663388393800005, 0.39363035, 288.71 ], [ -79.663351932500007, 0.3936736006, 288.63 ], [ -79.6632029023, 0.3937715851, 288.62 ], [ -79.663127884299996, 0.3939214535, 288.81 ], [ -79.663089327500003, 0.3940683044, 288.6 ], [ -79.663047501799994, 0.3941554762, 288.75 ], [ -79.663042975600007, 0.3942119703, 290.81 ], [ -79.662948763, 0.3943346813, 292.23 ], [ -79.662934681400003, 0.3943485115, 293.1 ], [ -79.662910038600003, 0.394370975, 294.7 ], [ -79.662866871800006, 0.3943796922, 297.5 ], [ -79.662829656200003, 0.3944193386, 299.89 ], [ -79.662750531, 0.3945565503, 302.64 ], [ -79.662590352799995, 0.3947258648, 301.59 ], [ -79.662511618644601, 0.39478407160995, 300.25 ], [ -79.662446846076534, 0.394848844178005, 303.9 ], [ -79.662378039200007, 0.3949206602, 305.52 ], [ -79.662354989, 0.394942956, 307.03 ], [ -79.662314672, 0.3949618153, 310.18 ], [ -79.6622802880444, 0.395052415106176, 312.05 ], [ -79.662215515476348, 0.395121814286235, 313.65 ], [ -79.662155369520292, 0.395218973138316, 0.0 ], [ -79.662082744800003, 0.395328775, 318.55 ], [ -79.662008062, 0.3954053018, 317.93 ], [ -79.661884345100006, 0.3956753667, 320.13 ], [ -79.661883339300005, 0.395679893, 320.08 ], [ -79.661849392600004, 0.3957175277, 323.23 ], [ -79.661844279600004, 0.3957272507, 323.53 ], [ -79.661812596, 0.3957648017, 324.57 ], [ -79.661609429303837, 0.396107282643064, 0.0 ], [ -79.661503017227759, 0.396283093899212, 0.0 ], [ -79.661360140900001, 0.3964126389, 360.31 ], [ -79.661323176699995, 0.3964457475, 361.67 ], [ -79.661274142600007, 0.3965150658, 364.86 ], [ -79.661200633299998, 0.3966024891, 370.24 ], [ -79.661153443200007, 0.396691002, 373.26 ], [ -79.661074066500007, 0.3967776708, 375.6 ], [ -79.661031067400003, 0.3968295548, 378.64 ], [ -79.6609961148, 0.396877164, 381.82 ], [ -79.660951858399997, 0.3969229292, 384.88 ], [ -79.660899639099995, 0.3969735559, 388.05 ], [ -79.660862507299996, 0.3970233444, 391.14 ], [ -79.660758739299993, 0.3973049764, 397.14 ], [ -79.660168935133271, 0.398475594512141, 386.86 ], [ -79.660138646099995, 0.3985264711, 389.38 ], [ -79.660034908422304, 0.398624070153226, 395.3 ], [ -79.659712456612866, 0.399167217452278, 434.8 ], [ -79.659653585399994, 0.3992047347, 437.05 ], [ -79.659647885699997, 0.3992106859, 437.11 ], [ -79.659641012500003, 0.3992604744, 437.6 ], [ -79.659626679499993, 0.3992805071, 438.19 ], [ -79.6595727, 0.3993626498, 441.3 ], [ -79.659532550700007, 0.3993991949, 443.83 ], [ -79.659285217100447, 0.399781386829287, 460.35 ], [ -79.659206078172147, 0.399900095221755, 463.41 ], [ -79.659127704799999, 0.4000416677, 466.47 ], [ -79.659015219699995, 0.4001833219, 472.21 ], [ -79.658997952899995, 0.4002230521, 472.82 ], [ -79.658967275200013, 0.4003215395, 473.53 ], [ -79.658865848385574, 0.400456297926724, 473.26 ], [ -79.658813964387335, 0.400504661526446, 473.84 ], [ -79.658793931588235, 0.400545816625937, 477.2 ], [ -79.658759487799998, 0.4006358609, 479.5 ], [ -79.658732330399999, 0.4006914329, 482.66 ], [ -79.6587143932, 0.4007247929, 485.7 ], [ -79.658674495300019, 0.400813641, 487.47 ], [ -79.658605177, 0.4009190015, 488.29 ], [ -79.658546000699999, 0.4009979591, 488.79 ], [ -79.658307535600002, 0.4013751447, 501.74 ], [ -79.658270236100009, 0.4014501628, 504.78 ], [ -79.658214915499997, 0.4015209898, 507.72 ], [ -79.658166887199997, 0.4015976004, 511.01 ], [ -79.658099329099997, 0.4016823415, 513.0 ], [ -79.658065047099996, 0.4017626401, 516.23 ], [ -79.658065466200014, 0.4017773084, 516.77 ], [ -79.658036716300003, 0.4018437769, 518.63 ], [ -79.658007463399997, 0.4018754605, 519.21 ], [ -79.657948203399997, 0.4019843414, 520.47 ], [ -79.657902438199997, 0.4020673223, 521.66 ], [ -79.657842591399998, 0.4021563381, 521.73 ], [ -79.657773943600006, 0.4022725113, 524.44 ], [ -79.657726921099993, 0.4023644608, 527.17 ], [ -79.657661374699998, 0.4024963081, 528.15 ], [ -79.657627344100007, 0.4025401454, 530.11 ], [ -79.657591804899994, 0.4025895149, 531.22 ], [ -79.657554421599997, 0.4027169198, 532.96 ], [ -79.657536149, 0.4027703125, 536.18 ], [ -79.657500777400003, 0.4028245434, 539.05 ], [ -79.657467752700001, 0.402921522, 542.4 ], [ -79.657427687200013, 0.4029772617, 545.14 ], [ -79.657364990600001, 0.4030528665, 548.16 ], [ -79.657316291699999, 0.4031152278, 549.17 ], [ -79.657275220399995, 0.4031541198, 549.36 ], [ -79.657240688606464, 0.403239798108674, 549.1 ], [ -79.657203555099997, 0.4032616597, 549.35 ], [ -79.657190147287309, 0.40333245719379, 549.26 ], [ -79.657145221670277, 0.403416692725714, 550.17 ], [ -79.657108719606441, 0.403470041895933, 553.2 ], [ -79.657083777699995, 0.403508842, 553.06 ], [ -79.657048741400004, 0.4035927448, 554.51 ], [ -79.657008508199993, 0.403666338, 556.08 ], [ -79.656947488, 0.4037573654, 559.15 ], [ -79.656934244599995, 0.4037760571, 559.61 ], [ -79.656897364200006, 0.4038426094, 561.15 ], [ -79.656823435800007, 0.4039515741, 562.02 ], [ -79.656751770499994, 0.4040505644, 561.89 ], [ -79.656679099399994, 0.4041214753, 564.37 ], [ -79.656585389699998, 0.4042061325, 567.47 ], [ -79.656497128300003, 0.4042510595, 570.79 ], [ -79.656394785299995, 0.4042917956, 570.79 ], [ -79.656322030400005, 0.4043598566, 573.87 ], [ -79.656261010099996, 0.4044019338, 577.19 ], [ -79.656220525500004, 0.404434707, 577.2 ], [ -79.656032268, 0.4045473598, 575.93 ], [ -79.655987257100008, 0.4045587592, 576.09 ], [ -79.655926320700004, 0.4046103079, 579.37 ], [ -79.655838813599999, 0.4046494514, 582.87 ], [ -79.655726579900005, 0.4047206976, 584.64 ], [ -79.655631277699996, 0.4047832265, 587.81 ], [ -79.655590793100004, 0.404792279, 584.22 ], [ -79.655539663499994, 0.4047358688, 581.96 ], [ -79.655492557200006, 0.4046812188, 580.26 ], [ -79.655450061, 0.4046321847, 577.98 ], [ -79.655437069, 0.4045813903, 574.91 ], [ -79.655394152319076, 0.404406156334965, 571.15 ], [ -79.655358790473827, 0.404312929652048, 574.65 ], [ -79.655351741199993, 0.4042426776, 575.97 ], [ -79.655320309100006, 0.4041752033, 579.24 ], [ -79.655307355062561, 0.404120046859806, 581.82 ], [ -79.655276304099999, 0.4040114209, 585.6 ], [ -79.655243028, 0.4039176274, 582.02 ], [ -79.655181756199994, 0.4038065672, 575.34 ], [ -79.655003976100005, 0.4035442136, 572.75 ], [ -79.654786801, 0.4033044912, 572.46 ], [ -79.654742209199995, 0.4032833688, 575.95 ], [ -79.654618324699996, 0.4032290541, 580.13 ], [ -79.654553700199997, 0.4031946044, 577.26 ], [ -79.654529225100006, 0.4031204246, 577.28 ], [ -79.654468204799997, 0.403085053, 579.71 ], [ -79.654447250100006, 0.4030474182, 580.69 ], [ -79.654446663300021, 0.4030247871, 581.26 ], [ -79.6544132195, 0.4030003119, 582.2 ], [ -79.654279947299997, 0.4028743319, 586.11 ], [ -79.654278606199995, 0.402871985, 586.03 ], [ -79.654279444400004, 0.4028757568, 586.29 ], [ -79.654257651400002, 0.4028490186, 586.31 ], [ -79.654206689399999, 0.4028163292, 585.71 ], [ -79.654179364399994, 0.4027329292, 584.35 ], [ -79.65411046520002, 0.4026622698, 581.44 ], [ -79.654050199300002, 0.4025942087, 580.78 ], [ -79.654013067500003, 0.4025262315, 579.87 ], [ -79.654023544899999, 0.4024582542, 578.77 ], [ -79.6540347766, 0.4024145845, 577.42 ], [ -79.654055228499999, 0.4022987466, 575.12 ], [ -79.654077692, 0.4022418335, 577.17 ], [ -79.654092947, 0.402204534, 579.83 ], [ -79.654186153799998, 0.4018638097, 566.59 ], [ -79.654182801, 0.4017833434, 568.03 ], [ -79.654274666700005, 0.4013783298, 568.28 ], [ -79.654272487399993, 0.401373636, 568.09 ], [ -79.654269889, 0.40128747, 566.28 ], [ -79.654312720500002, 0.4010710493, 578.55 ], [ -79.654347421599994, 0.4010025691, 578.12 ], [ -79.654343230600006, 0.4009082727, 575.83 ], [ -79.654349349399993, 0.4007783532, 574.15 ], [ -79.65434993620002, 0.4007517826, 573.39 ], [ -79.654393103, 0.4006816261, 572.49 ], [ -79.654427049700004, 0.4006124754, 570.95 ], [ -79.654492763799993, 0.4005178437, 568.53 ], [ -79.654523860699996, 0.4004203621, 566.52 ], [ -79.654570212600007, 0.4003610183, 563.47 ], [ -79.654581444300007, 0.4003081284, 562.36 ], [ -79.654583668205333, 0.400225100684023, 553.53525815163448 ], [ -79.654560573400005, 0.4002320208, 542.15 ], [ -79.654542468499997, 0.4002204537, 542.88 ] ], [ [ -79.65736953202763, 0.396481985157902, 493.29 ], [ -79.657384448886418, 0.396457123726763, 245.313053500512211 ], [ -79.657334133514667, 0.396523938952784, 252.276663961164417 ], [ -79.65736953202763, 0.396481985157902, 493.29 ] ] ] ] } }
]
}
